[{"OBJECT_NAME":"STARLINK-32658","OBJECT_ID":"2025-031U","EPOCH":"2025-09-05T00:52:34.323168","MEAN_MOTION":15.27580613,"ECCENTRICITY":0.00015708,"INCLINATION":42.9996,"RA_OF_ASC_NODE":111.6577,"ARG_OF_PERICENTER":252.3894,"MEAN_ANOMALY":107.6786,"EPHEMERIS_TYPE":0,"CLASSIFICATION_TYPE":"U","NORAD_CAT_ID":62999,"ELEMENT_SET_NO":999,"REV_AT_EPOCH":3270,"BSTAR":0.0011056904,"MEAN_MOTION_DOT":0.0003029,"MEAN_MOTION_DDOT":0},{"OBJECT_NAME":"STARLINK-32673","OBJECT_ID":"2025-031V","EPOCH":"2025-09-05T01:18:28.532160","MEAN_MOTION":15.2757248,"ECCENTRICITY":0.00017608,"INCLINATION":42.9996,"RA_OF_ASC_NODE":111.8,"ARG_OF_PERICENTER":291.272,"MEAN_ANOMALY":68.7943,"EPHEMERIS_TYPE":0,"CLASSIFICATION_TYPE":"U","NORAD_CAT_ID":63000,"ELEMENT_SET_NO":999,"REV_AT_EPOCH":3270,"BSTAR":0.0011798699,"MEAN_MOTION_DOT":0.00032341,"MEAN_MOTION_DDOT":0},{"OBJECT_NAME":"STARLINK-32437","OBJECT_ID":"2025-031W","EPOCH":"2025-09-05T00:21:19.463040","MEAN_MOTION":15.2758435,"ECCENTRICITY":0.00016038,"INCLINATION":43.0042,"RA_OF_ASC_NODE":112.364,"ARG_OF_PERICENTER":288.086,"MEAN_ANOMALY":71.9817,"EPHEMERIS_TYPE":0,"CLASSIFICATION_TYPE":"U","NORAD_CAT_ID":63001,"ELEMENT_SET_NO":999,"REV_AT_EPOCH":3269,"BSTAR":0.0010679393,"MEAN_MOTION_DOT":0.00029246,"MEAN_MOTION_DDOT":0},{"OBJECT_NAME":"STARLINK-11448 [DTC]","OBJECT_ID":"2025-032A","EPOCH":"2025-09-05T06:06:25.967808","MEAN_MOTION":15.70905576,"ECCENTRICITY":0.00011015,"INCLINATION":42.9993,"RA_OF_ASC_NODE":232.7283,"ARG_OF_PERICENTER":270.4411,"MEAN_ANOMALY":89.633,"EPHEMERIS_TYPE":0,"CLASSIFICATION_TYPE":"U","NORAD_CAT_ID":63005,"ELEMENT_SET_NO":999,"REV_AT_EPOCH":3306,"BSTAR":0.0018480091,"MEAN_MOTION_DOT":0.00244456,"MEAN_MOTION_DDOT":0},{"OBJECT_NAME":"STARLINK-11553 [DTC]","OBJECT_ID":"2025-032B","EPOCH":"2025-09-05T05:51:19.796832","MEAN_MOTION":15.71052549,"ECCENTRICITY":0.00017023,"INCLINATION":42.9981,"RA_OF_ASC_NODE":233.5387,"ARG_OF_PERICENTER":227.7095,"MEAN_ANOMALY":132.3628,"EPHEMERIS_TYPE":0,"CLASSIFICATION_TYPE":"U","NORAD_CAT_ID":63006,"ELEMENT_SET_NO":999,"REV_AT_EPOCH":3304,"BSTAR":0.0016813949,"MEAN_MOTION_DOT":0.00223176,"MEAN_MOTION_DDOT":0},{"OBJECT_NAME":"STARLINK-11526 [DTC]","OBJECT_ID":"2025-032C","EPOCH":"2025-09-05T05:58:47.202816","MEAN_MOTION":15.70931857,"ECCENTRICITY":0.00012015,"INCLINATION":43,"RA_OF_ASC_NODE":232.6849,"ARG_OF_PERICENTER":249.7235,"MEAN_ANOMALY":110.3504,"EPHEMERIS_TYPE":0,"CLASSIFICATION_TYPE":"U","NORAD_CAT_ID":63007,"ELEMENT_SET_NO":999,"REV_AT_EPOCH":3305,"BSTAR":0.0021966961,"MEAN_MOTION_DOT":0.00292701,"MEAN_MOTION_DDOT":0},{"OBJECT_NAME":"STARLINK-11405 [DTC]","OBJECT_ID":"2025-032D","EPOCH":"2025-09-05T05:37:21.061920","MEAN_MOTION":15.70918498,"ECCENTRICITY":0.0001007,"INCLINATION":42.9992,"RA_OF_ASC_NODE":233.4598,"ARG_OF_PERICENTER":173.6258,"MEAN_ANOMALY":186.4622,"EPHEMERIS_TYPE":0,"CLASSIFICATION_TYPE":"U","NORAD_CAT_ID":63008,"ELEMENT_SET_NO":999,"REV_AT_EPOCH":3289,"BSTAR":0.0017891659,"MEAN_MOTION_DOT":0.00236559,"MEAN_MOTION_DDOT":0},{"OBJECT_NAME":"STARLINK-11586 [DTC]","OBJECT_ID":"2025-032E","EPOCH":"2025-09-05T06:44:39.497280","MEAN_MOTION":15.7091073,"ECCENTRICITY":0.00018405,"INCLINATION":42.9992,"RA_OF_ASC_NODE":232.941,"ARG_OF_PERICENTER":246.6632,"MEAN_ANOMALY":113.4042,"EPHEMERIS_TYPE":0,"CLASSIFICATION_TYPE":"U","NORAD_CAT_ID":63009,"ELEMENT_SET_NO":999,"REV_AT_EPOCH":3305,"BSTAR":0.00094501676,"MEAN_MOTION_DOT":0.00122987,"MEAN_MOTION_DDOT":0},{"OBJECT_NAME":"STARLINK-11574 [DTC]","OBJECT_ID":"2025-032F","EPOCH":"2025-09-05T03:56:50.200224","MEAN_MOTION":15.70895487,"ECCENTRICITY":0.00014329,"INCLINATION":42.9989,"RA_OF_ASC_NODE":233.7927,"ARG_OF_PERICENTER":281.4411,"MEAN_ANOMALY":78.6296,"EPHEMERIS_TYPE":0,"CLASSIFICATION_TYPE":"U","NORAD_CAT_ID":63010,"ELEMENT_SET_NO":999,"REV_AT_EPOCH":3303,"BSTAR":0.00076388695,"MEAN_MOTION_DOT":0.00098974,"MEAN_MOTION_DDOT":0},{"OBJECT_NAME":"STARLINK-11580 [DTC]","OBJECT_ID":"2025-032G","EPOCH":"2025-09-05T06:21:43.172928","MEAN_MOTION":15.70956383,"ECCENTRICITY":5.287e-5,"INCLINATION":42.9988,"RA_OF_ASC_NODE":232.8108,"ARG_OF_PERICENTER":143.548,"MEAN_ANOMALY":216.5424,"EPHEMERIS_TYPE":0,"CLASSIFICATION_TYPE":"U","NORAD_CAT_ID":63011,"ELEMENT_SET_NO":999,"REV_AT_EPOCH":3290,"BSTAR":0.0011910924,"MEAN_MOTION_DOT":0.00156049,"MEAN_MOTION_DDOT":0},{"OBJECT_NAME":"STARLINK-11449 [DTC]","OBJECT_ID":"2025-032H","EPOCH":"2025-09-05T02:02:20.397984","MEAN_MOTION":15.70905387,"ECCENTRICITY":7.853e-5,"INCLINATION":42.9979,"RA_OF_ASC_NODE":234.0464,"ARG_OF_PERICENTER":259.2015,"MEAN_ANOMALY":100.8765,"EPHEMERIS_TYPE":0,"CLASSIFICATION_TYPE":"U","NORAD_CAT_ID":63012,"ELEMENT_SET_NO":999,"REV_AT_EPOCH":3302,"BSTAR":0.0020293973,"MEAN_MOTION_DOT":0.0026931,"MEAN_MOTION_DDOT":0},{"OBJECT_NAME":"STARLINK-11577 [DTC]","OBJECT_ID":"2025-032J","EPOCH":"2025-09-05T00:46:04.297152","MEAN_MOTION":15.71088446,"ECCENTRICITY":0.00025708,"INCLINATION":42.9987,"RA_OF_ASC_NODE":234.5143,"ARG_OF_PERICENTER":216.741,"MEAN_ANOMALY":143.3282,"EPHEMERIS_TYPE":0,"CLASSIFICATION_TYPE":"U","NORAD_CAT_ID":63013,"ELEMENT_SET_NO":999,"REV_AT_EPOCH":3301,"BSTAR":0.0029314951,"MEAN_MOTION_DOT":0.00398436,"MEAN_MOTION_DDOT":0},{"OBJECT_NAME":"STARLINK-11578 [DTC]","OBJECT_ID":"2025-032K","EPOCH":"2025-09-05T05:43:40.976544","MEAN_MOTION":15.71015094,"ECCENTRICITY":0.000124,"INCLINATION":42.9989,"RA_OF_ASC_NODE":233.4928,"ARG_OF_PERICENTER":223.1195,"MEAN_ANOMALY":136.9576,"EPHEMERIS_TYPE":0,"CLASSIFICATION_TYPE":"U","NORAD_CAT_ID":63014,"ELEMENT_SET_NO":999,"REV_AT_EPOCH":3299,"BSTAR":0.0020264316,"MEAN_MOTION_DOT":0.00270182,"MEAN_MOTION_DDOT":0},{"OBJECT_NAME":"STARLINK-11541 [DTC]","OBJECT_ID":"2025-032L","EPOCH":"2025-09-05T06:14:04.624800","MEAN_MOTION":15.70923581,"ECCENTRICITY":7.715e-5,"INCLINATION":42.9977,"RA_OF_ASC_NODE":232.7655,"ARG_OF_PERICENTER":170.5,"MEAN_ANOMALY":189.5883,"EPHEMERIS_TYPE":0,"CLASSIFICATION_TYPE":"U","NORAD_CAT_ID":63015,"ELEMENT_SET_NO":999,"REV_AT_EPOCH":3306,"BSTAR":0.0021870723,"MEAN_MOTION_DOT":0.00291271,"MEAN_MOTION_DDOT":0},{"OBJECT_NAME":"STARLINK-11545 [DTC]","OBJECT_ID":"2025-032M","EPOCH":"2025-09-05T06:29:22.192800","MEAN_MOTION":15.70904152,"ECCENTRICITY":0.0001387,"INCLINATION":42.999,"RA_OF_ASC_NODE":232.8517,"ARG_OF_PERICENTER":278.3858,"MEAN_ANOMALY":81.6853,"EPHEMERIS_TYPE":0,"CLASSIFICATION_TYPE":"U","NORAD_CAT_ID":63016,"ELEMENT_SET_NO":999,"REV_AT_EPOCH":3306,"BSTAR":0.00123597,"MEAN_MOTION_DOT":0.001617,"MEAN_MOTION_DDOT":0},{"OBJECT_NAME":"STARLINK-11400 [DTC]","OBJECT_ID":"2025-032N","EPOCH":"2025-09-05T05:36:02.218464","MEAN_MOTION":15.70907954,"ECCENTRICITY":0.00017454,"INCLINATION":42.9992,"RA_OF_ASC_NODE":233.4489,"ARG_OF_PERICENTER":274.1168,"MEAN_ANOMALY":85.95,"EPHEMERIS_TYPE":0,"CLASSIFICATION_TYPE":"U","NORAD_CAT_ID":63017,"ELEMENT_SET_NO":999,"REV_AT_EPOCH":3304,"BSTAR":0.0010953408,"MEAN_MOTION_DOT":0.0014295,"MEAN_MOTION_DDOT":0}]
