STARLINK-32658          
1 62999U 25031U   25248.03650837  .00030290  00000+0  11057-2 0  9998
2 62999  42.9996 111.6577 0001570 252.3894 107.6786 15.27580613 32705
STARLINK-32673          
1 63000U 25031V   25248.05449690  .00032341  00000+0  11799-2 0  9999
2 63000  42.9996 111.8000 0001760 291.2720  68.7943 15.27572480 32708
STARLINK-32437          
1 63001U 25031W   25248.01480860  .00029246  00000+0  10679-2 0  9996
2 63001  43.0042 112.3640 0001603 288.0860  71.9817 15.27584350 32697
STARLINK-11448 [DTC]    
1 63005U 25032A   25248.25446722  .00244456  00000+0  18480-2 0  9996
2 63005  42.9993 232.7283 0001101 270.4411  89.6330 15.70905576 33067
STARLINK-11553 [DTC]    
1 63006U 25032B   25248.24397913  .00223176  00000+0  16814-2 0  9998
2 63006  42.9981 233.5387 0001702 227.7095 132.3628 15.71052549 33047
STARLINK-11526 [DTC]    
1 63007U 25032C   25248.24915744  .00292701  00000+0  21967-2 0  9992
2 63007  43.0000 232.6849 0001201 249.7235 110.3504 15.70931857 33056
STARLINK-11405 [DTC]    
1 63008U 25032D   25248.23427155  .00236559  00000+0  17892-2 0  9997
2 63008  42.9992 233.4598 0001007 173.6258 186.4622 15.70918498 32891
STARLINK-11586 [DTC]    
1 63009U 25032E   25248.28101270  .00122987  00000+0  94502-3 0  9993
2 63009  42.9992 232.9410 0001840 246.6632 113.4042 15.70910730 33057
STARLINK-11574 [DTC]    
1 63010U 25032F   25248.16446991  .00098974  00000+0  76389-3 0  9995
2 63010  42.9989 233.7927 0001432 281.4411  78.6296 15.70895487 33038
STARLINK-11580 [DTC]    
1 63011U 25032G   25248.26508302  .00156049  00000+0  11911-2 0  9999
2 63011  42.9988 232.8108 0000528 143.5480 216.5424 15.70956383 32902
STARLINK-11449 [DTC]    
1 63012U 25032H   25248.08495831  .00269310  00000+0  20294-2 0  9992
2 63012  42.9979 234.0464 0000785 259.2015 100.8765 15.70905387 33021
STARLINK-11577 [DTC]    
1 63013U 25032J   25248.03199418  .00398436  00000+0  29315-2 0  9995
2 63013  42.9987 234.5143 0002570 216.7410 143.3282 15.71088446 33015
STARLINK-11578 [DTC]    
1 63014U 25032K   25248.23866871  .00270182  00000+0  20264-2 0  9993
2 63014  42.9989 233.4928 0001240 223.1195 136.9576 15.71015094 32991
STARLINK-11541 [DTC]    
1 63015U 25032L   25248.25977575  .00291271  00000+0  21871-2 0  9997
2 63015  42.9977 232.7655 0000771 170.5000 189.5883 15.70923581 33068
STARLINK-11545 [DTC]    
1 63016U 25032M   25248.27039575  .00161700  00000+0  12360-2 0  9995
2 63016  42.9990 232.8517 0001387 278.3858  81.6853 15.70904152 33066
STARLINK-11400 [DTC]    
1 63017U 25032N   25248.23335901  .00142950  00000+0  10953-2 0  9996
2 63017  42.9992 233.4489 0001745 274.1168  85.9500 15.70907954 33047
